IRIDIUM 63              
1 25286U 98021B   25329.07612395  .00000481  00000+0  15675-3 0  9996
2 25286  86.4000  14.6258 0002409  95.4347 264.7125 14.36716045446947
IRIDIUM 69              
1 25319U 98026A   25329.07954125  .00000693  00000+0  20885-3 0  9992
2 25319  86.3996  27.4032 0002380 157.8268 202.3035 14.41189499446235
IRIDIUM 71              
1 25320U 98026B   25329.13705172  .00000383  00000+0  11246-3 0  9994
2 25320  86.3994  22.0534 0000141  52.7163 307.4050 14.41302900446770
IRIDIUM 73              
1 25344U 98032C   25329.06739286  .00000756  00000+0  18244-3 0  9991
2 25344  86.4406 338.5018 0002542 106.3547 253.7939 14.51954544453906
IRIDIUM 82              
1 25467U 98051A   25329.10285332  .00049872  00000+0  97669-3 0  9991
2 25467  86.3626  29.9721 0065880  43.2204 317.4194 15.44791033448674
